ESEO                    
1 43792U 18099AL  26068.65529582  .00002831  00000+0  20935-3 0  9991
2 43792  97.4113 110.2601 0011063 317.6000  42.4371 15.03914518396849
STARLINK-35083          
1 65390U 25191M   26068.61212359  .00000111  00000+0  11889-4 0  9995
2 65390  97.6017 301.3881 0002300  80.2183 279.9303 15.05660245 30253
